start=new Date('2022-09-12T00:00:00.000Z').valueOf();
sats=[{"FILE":"3569361","NORAD_CAT_ID":"52564","MEAN_ELEMENT_THEORY":"SGP4","CLASSIFICATION_TYPE":"U","BSTAR":"-0.00210360000000","ARG_OF_PERICENTER":"62.3904","GP_ID":"212359008","REF_FRAME":"TEME","ECCENTRICITY":"0.00014860","RCS_SIZE":"LARGE","PERIOD":"95.435","CENTER_NAME":"EARTH","DECAY_DATE":null,"ELEMENT_SET_NO":"999","OBJECT_NAME":"STARLINK-3959","MEAN_MOTION_DOT":"-0.00033642","MEAN_MOTION":"15.08874189","INCLINATION":"53.2157","MEAN_ANOMALY":"12.6691","LAUNCH_DATE":"2022-05-13","SITE":"AFWTR","APOAPSIS":"540.669","COUNTRY_CODE":"US","OBJECT_ID":"2022-051AH","RA_OF_ASC_NODE":"96.8099","TIME_SYSTEM":"UTC","PERIAPSIS":"538.613","EPOCH":"2022-09-11T22:00:00.999936","SEMIMAJOR_AXIS":"6917.776","MEAN_MOTION_DDOT":"0.0000000000000","TLE_LINE2":"2 52564  53.2157  96.8099 0001486  62.3904  12.6691 15.08874189  1301","TLE_LINE1":"1 52564U 22051AH  22254.91667824 -.00033642  00000-0 -21036-2 0  9994","EPHEMERIS_TYPE":"0","REV_AT_EPOCH":"130","OBJECT_TYPE":"PAYLOAD"},{"COUNTRY_CODE":"US","APOAPSIS":"540.938","SITE":"AFWTR","LAUNCH_DATE":"2022-05-13","RA_OF_ASC_NODE":"81.7961","OBJECT_ID":"2022-051AJ","TLE_LINE2":"2 52565  53.2152  81.7961 0001645  60.5863 277.0534 15.08822201  1300","TLE_LINE1":"1 52565U 22051AJ  22254.91667824  .00039163  00000-0  24663-2 0  9996","PERIAPSIS":"538.662","SEMIMAJOR_AXIS":"6917.935","EPOCH":"2022-09-11T22:00:00.999936","MEAN_MOTION_DDOT":"0.0000000000000","TIME_SYSTEM":"UTC","OBJECT_TYPE":"PAYLOAD","REV_AT_EPOCH":"130","EPHEMERIS_TYPE":"0","CLASSIFICATION_TYPE":"U","BSTAR":"0.00246630000000","ARG_OF_PERICENTER":"60.5863","MEAN_ELEMENT_THEORY":"SGP4","NORAD_CAT_ID":"52565","FILE":"3569361","PERIOD":"95.439","RCS_SIZE":"LARGE","CENTER_NAME":"EARTH","GP_ID":"212359577","ECCENTRICITY":"0.00016450","REF_FRAME":"TEME","OBJECT_NAME":"STARLINK-3911","ELEMENT_SET_NO":"999","DECAY_DATE":null,"MEAN_ANOMALY":"277.0534","INCLINATION":"53.2152","MEAN_MOTION":"15.08822201","MEAN_MOTION_DOT":"0.00039163"},{"APOAPSIS":"541.051","COUNTRY_CODE":"US","LAUNCH_DATE":"2022-05-13","SITE":"AFWTR","RA_OF_ASC_NODE":"96.7952","OBJECT_ID":"2022-051AK","PERIAPSIS":"538.390","EPOCH":"2022-09-11T22:00:00.999936","SEMIMAJOR_AXIS":"6917.856","MEAN_MOTION_DDOT":"0.0000000000000","TLE_LINE2":"2 52566  53.2164  96.7952 0001923  66.1825 128.9593 15.08848079  1309","TLE_LINE1":"1 52566U 22051AK  22254.91667824 -.00021529  00000-0 -13383-2 0  9993","TIME_SYSTEM":"UTC","REV_AT_EPOCH":"130","OBJECT_TYPE":"PAYLOAD","EPHEMERIS_TYPE":"0","BSTAR":"-0.00133830000000","CLASSIFICATION_TYPE":"U","ARG_OF_PERICENTER":"66.1825","FILE":"3569361","NORAD_CAT_ID":"52566","MEAN_ELEMENT_THEORY":"SGP4","RCS_SIZE":"MEDIUM","PERIOD":"95.437","CENTER_NAME":"EARTH","GP_ID":"212360082","REF_FRAME":"TEME","ECCENTRICITY":"0.00019230","OBJECT_NAME":"STARLINK-3938","ELEMENT_SET_NO":"999","DECAY_DATE":null,"MEAN_ANOMALY":"128.9593","MEAN_MOTION_DOT":"-0.00021529","MEAN_MOTION":"15.08848079","INCLINATION":"53.2164"},{"MEAN_MOTION_DOT":"0.00010528","INCLINATION":"53.2145","MEAN_MOTION":"15.08840485","MEAN_ANOMALY":"322.6545","ELEMENT_SET_NO":"999","DECAY_DATE":null,"OBJECT_NAME":"STARLINK-3929","GP_ID":"212359729","ECCENTRICITY":"0.00018310","REF_FRAME":"TEME","PERIOD":"95.438","RCS_SIZE":"LARGE","CENTER_NAME":"EARTH","NORAD_CAT_ID":"52567","FILE":"3569361","MEAN_ELEMENT_THEORY":"SGP4","BSTAR":"0.00067855000000","CLASSIFICATION_TYPE":"U","ARG_OF_PERICENTER":"54.9736","EPHEMERIS_TYPE":"0","REV_AT_EPOCH":"130","OBJECT_TYPE":"PAYLOAD","TIME_SYSTEM":"UTC","PERIAPSIS":"538.477","SEMIMAJOR_AXIS":"6917.879","EPOCH":"2022-09-11T22:00:00.999936","MEAN_MOTION_DDOT":"0.0000000000000","TLE_LINE2":"2 52567  53.2145  81.7942 0001831  54.9736 322.6545 15.08840485  1309","TLE_LINE1":"1 52567U 22051AL  22254.91667824  .00010528  00000-0  67855-3 0  9993","OBJECT_ID":"2022-051AL","RA_OF_ASC_NODE":"81.7942","LAUNCH_DATE":"2022-05-13","SITE":"AFWTR","APOAPSIS":"541.011","COUNTRY_CODE":"US"},{"MEAN_MOTION":"15.08844256","INCLINATION":"53.2153","MEAN_MOTION_DOT":"-0.00006848","MEAN_ANOMALY":"19.6792","ELEMENT_SET_NO":"999","DECAY_DATE":null,"OBJECT_NAME":"STARLINK-3930","REF_FRAME":"TEME","GP_ID":"212359424","ECCENTRICITY":"0.00017000","RCS_SIZE":"LARGE","CENTER_NAME":"EARTH","PERIOD":"95.437","MEAN_ELEMENT_THEORY":"SGP4","FILE":"3569361","NORAD_CAT_ID":"52568","BSTAR":"-0.00041249000000","CLASSIFICATION_TYPE":"U","ARG_OF_PERICENTER":"57.9530","EPHEMERIS_TYPE":"0","OBJECT_TYPE":"PAYLOAD","REV_AT_EPOCH":"130","TIME_SYSTEM":"UTC","TLE_LINE1":"1 52568U 22051AM  22254.91667824 -.00006848  00000-0 -41249-3 0  9995","TLE_LINE2":"2 52568  53.2153  81.7965 0001700  57.9530  19.6792 15.08844256  1301","PERIAPSIS":"538.556","SEMIMAJOR_AXIS":"6917.867","EPOCH":"2022-09-11T22:00:00.999936","MEAN_MOTION_DDOT":"0.0000000000000","OBJECT_ID":"2022-051AM","RA_OF_ASC_NODE":"81.7965","SITE":"AFWTR","LAUNCH_DATE":"2022-05-13","COUNTRY_CODE":"US","APOAPSIS":"540.908"},{"LAUNCH_DATE":"2022-05-13","SITE":"AFWTR","APOAPSIS":"540.890","COUNTRY_CODE":"US","OBJECT_ID":"2022-051AN","RA_OF_ASC_NODE":"81.7960","TIME_SYSTEM":"UTC","PERIAPSIS":"538.553","MEAN_MOTION_DDOT":"0.0000000000000","SEMIMAJOR_AXIS":"6917.857","EPOCH":"2022-09-11T22:00:00.999936","TLE_LINE2":"2 52569  53.2152  81.7960 0001689  54.9667 342.6679 15.08847714  1305","TLE_LINE1":"1 52569U 22051AN  22254.91667824 -.00012285  00000-0 -75490-3 0  9993","EPHEMERIS_TYPE":"0","REV_AT_EPOCH":"130","OBJECT_TYPE":"PAYLOAD","NORAD_CAT_ID":"52569","FILE":"3569361","MEAN_ELEMENT_THEORY":"SGP4","BSTAR":"-0.00075490000000","ARG_OF_PERICENTER":"54.9667","CLASSIFICATION_TYPE":"U","ECCENTRICITY":"0.00016890","GP_ID":"212359163","REF_FRAME":"TEME","RCS_SIZE":"LARGE","PERIOD":"95.437","CENTER_NAME":"EARTH","DECAY_DATE":null,"ELEMENT_SET_NO":"999","OBJECT_NAME":"STARLINK-3927","MEAN_MOTION_DOT":"-0.00012285","INCLINATION":"53.2152","MEAN_MOTION":"15.08847714","MEAN_ANOMALY":"342.6679"},{"MEAN_ANOMALY":"35.4104","INCLINATION":"53.2146","MEAN_MOTION":"15.08823180","MEAN_MOTION_DOT":"0.00030347","OBJECT_NAME":"STARLINK-3924","DECAY_DATE":null,"ELEMENT_SET_NO":"999","RCS_SIZE":"LARGE","PERIOD":"95.439","CENTER_NAME":"EARTH","REF_FRAME":"TEME","GP_ID":"212359885","ECCENTRICITY":"0.00016380","BSTAR":"0.00191750000000","ARG_OF_PERICENTER":"62.2071","CLASSIFICATION_TYPE":"U","MEAN_ELEMENT_THEORY":"SGP4","NORAD_CAT_ID":"52570","FILE":"3569361","OBJECT_TYPE":"PAYLOAD","REV_AT_EPOCH":"130","EPHEMERIS_TYPE":"0","TLE_LINE2":"2 52570  53.2146  81.7933 0001638  62.2071  35.4104 15.08823180  1306","TLE_LINE1":"1 52570U 22051AP  22254.91667824  .00030347  00000-0  19175-2 0  9999","PERIAPSIS":"538.664","EPOCH":"2022-09-11T22:00:00.999936","SEMIMAJOR_AXIS":"6917.932","MEAN_MOTION_DDOT":"0.0000000000000","TIME_SYSTEM":"UTC","RA_OF_ASC_NODE":"81.7933","OBJECT_ID":"2022-051AP","COUNTRY_CODE":"US","APOAPSIS":"540.930","SITE":"AFWTR","LAUNCH_DATE":"2022-05-13"},{"NORAD_CAT_ID":"52574","FILE":"3569361","MEAN_ELEMENT_THEORY":"SGP4","BSTAR":"0.00229180000000","CLASSIFICATION_TYPE":"U","ARG_OF_PERICENTER":"63.0202","GP_ID":"212360083","REF_FRAME":"TEME","ECCENTRICITY":"0.00016110","RCS_SIZE":"LARGE","PERIOD":"95.439","CENTER_NAME":"EARTH","ELEMENT_SET_NO":"999","DECAY_DATE":null,"OBJECT_NAME":"STARLINK-3901","MEAN_MOTION_DOT":"0.00036351","INCLINATION":"53.2154","MEAN_MOTION":"15.08816667","MEAN_ANOMALY":"354.5224","LAUNCH_DATE":"2022-05-13","SITE":"AFWTR","APOAPSIS":"540.931","COUNTRY_CODE":"US","OBJECT_ID":"2022-051AQ","RA_OF_ASC_NODE":"81.8002","TIME_SYSTEM":"UTC","SEMIMAJOR_AXIS":"6917.952","PERIAPSIS":"538.702","MEAN_MOTION_DDOT":"0.0000000000000","EPOCH":"2022-09-11T22:00:00.999936","TLE_LINE1":"1 52574U 22051AQ  22254.91667824  .00036351  00000-0  22918-2 0  9993","TLE_LINE2":"2 52574  53.2154  81.8002 0001611  63.0202 354.5224 15.08816667  1303","EPHEMERIS_TYPE":"0","REV_AT_EPOCH":"130","OBJECT_TYPE":"PAYLOAD"},{"ELEMENT_SET_NO":"999","DECAY_DATE":null,"OBJECT_NAME":"STARLINK-3920","MEAN_MOTION_DOT":"0.00036847","MEAN_MOTION":"15.08820724","INCLINATION":"53.2147","MEAN_ANOMALY":"55.3202","FILE":"3569361","NORAD_CAT_ID":"52575","MEAN_ELEMENT_THEORY":"SGP4","ARG_OF_PERICENTER":"62.3219","BSTAR":"0.00232240000000","CLASSIFICATION_TYPE":"U","REF_FRAME":"TEME","GP_ID":"212359730","ECCENTRICITY":"0.00016990","RCS_SIZE":"LARGE","PERIOD":"95.439","CENTER_NAME":"EARTH","TIME_SYSTEM":"UTC","PERIAPSIS":"538.629","MEAN_MOTION_DDOT":"0.0000000000000","SEMIMAJOR_AXIS":"6917.939","EPOCH":"2022-09-11T22:00:00.999936","TLE_LINE1":"1 52575U 22051AR  22254.91667824  .00036847  00000-0  23224-2 0  9995","TLE_LINE2":"2 52575  53.2147  81.7891 0001699  62.3219  55.3202 15.08820724  1308","EPHEMERIS_TYPE":"0","REV_AT_EPOCH":"130","OBJECT_TYPE":"PAYLOAD","LAUNCH_DATE":"2022-05-13","SITE":"AFWTR","APOAPSIS":"540.980","COUNTRY_CODE":"US","OBJECT_ID":"2022-051AR","RA_OF_ASC_NODE":"81.7891"},{"OBJECT_TYPE":"PAYLOAD","REV_AT_EPOCH":"130","EPHEMERIS_TYPE":"0","TLE_LINE2":"2 52576  53.2162  81.7851 0001800  50.8141 101.6346 15.08831496  1304","TLE_LINE1":"1 52576U 22051AS  22254.91667824  .00019230  00000-0  12233-2 0  9991","PERIAPSIS":"538.526","SEMIMAJOR_AXIS":"6917.906","EPOCH":"2022-09-11T22:00:00.999936","MEAN_MOTION_DDOT":"0.0000000000000","TIME_SYSTEM":"UTC","RA_OF_ASC_NODE":"81.7851","OBJECT_ID":"2022-051AS","COUNTRY_CODE":"US","APOAPSIS":"541.017","SITE":"AFWTR","LAUNCH_DATE":"2022-05-13","MEAN_ANOMALY":"101.6346","INCLINATION":"53.2162","MEAN_MOTION":"15.08831496","MEAN_MOTION_DOT":"0.00019230","OBJECT_NAME":"STARLINK-3932","DECAY_DATE":null,"ELEMENT_SET_NO":"999","RCS_SIZE":"LARGE","PERIOD":"95.438","CENTER_NAME":"EARTH","GP_ID":"212359425","ECCENTRICITY":"0.00018000","REF_FRAME":"TEME","CLASSIFICATION_TYPE":"U","BSTAR":"0.00122330000000","ARG_OF_PERICENTER":"50.8141","MEAN_ELEMENT_THEORY":"SGP4","NORAD_CAT_ID":"52576","FILE":"3569361"}];
